ONEWEB-0159             
1 48062U 21025W   26089.72801943  .00000062  00000+0  13516-3 0  9995
2 48062  87.9019 335.8268 0001669  72.5663 287.5649 13.13471963243303
ONEWEB-0164             
1 48063U 21025X   26089.93792460 -.00000275  00000+0 -78770-3 0  9993
2 48063  87.9021 335.7918 0001771  82.8987 277.2343 13.13468366243316
ONEWEB-0167             
1 48064U 21025Y   26089.96585848  .00000327  00000+0  86039-3 0  9990
2 48064  87.9009 335.8033 0002375  74.0409 286.0982 13.13473540243301
ONEWEB-0166             
1 48065U 21025Z   26089.91254042  .00000183  00000+0  46595-3 0  9998
2 48065  87.9018 335.7784 0001553  75.6167 284.5135 13.13468482243378
ONEWEB-0151             
1 48066U 21025AA  26089.91423519  .00000170  00000+0  43004-3 0  9994
2 48066  87.9013 335.8027 0001850  80.1509 279.9829 13.13471309243310
ONEWEB-0170             
1 48067U 21025AB  26089.92269496 -.00000034  00000+0 -12863-3 0  9998
2 48067  87.9012 335.8027 0002075  89.8526 270.2841 13.13468368243279
ONEWEB-0168             
1 48068U 21025AC  26089.75510776  .00000268  00000+0  70026-3 0  9992
2 48068  87.9021 335.8288 0001734  73.5860 286.5460 13.13468524243261
ONEWEB-0173             
1 48069U 21025AD  26089.97516703  .00000243  00000+0  63094-3 0  9993
2 48069  87.9016 335.7911 0001947  71.1111 289.0229 13.13471472243534
ONEWEB-0171             
1 48070U 21025AE  26089.93623315 -.00000438  00000+0 -12338-2 0  9991
2 48070  87.9009 335.8096 0001812  80.8933 279.2401 13.13469673243345
ONEWEB-0172             
1 48071U 21025AF  26089.91591459  .00000130  00000+0  32149-3 0  9993
2 48071  87.9010 335.8012 0001858  77.3839 282.7498 13.13472461244235
ONEWEB-0174             
1 48072U 21025AG  26089.97347956  .00000301  00000+0  78820-3 0  9997
2 48072  87.9008 335.7907 0001573  75.6427 284.4877 13.13471842243560
ONEWEB-0175             
1 48073U 21025AH  26089.92777089 -.00000166  00000+0 -49080-3 0  9994
2 48073  87.9018 335.7774 0002046  82.9612 277.1750 13.13471582243219
ONEWEB-0177             
1 48074U 21025AJ  26089.93961565 -.00000277  00000+0 -79253-3 0  9998
2 48074  87.9017 335.7963 0001720  73.2184 286.9134 13.13468889243405
ONEWEB-0178             
1 48075U 21025AK  26089.72984230  .00000148  00000+0  37138-3 0  9991
2 48075  87.8998 335.8615 0001997  78.0843 282.0510 13.13472724243429
ONEWEB-0108             
1 48076U 21025AL  26089.91761722  .00000040  00000+0  75443-4 0  9995
2 48076  87.9019 335.7889 0001517  84.3980 275.7322 13.13468601243370
ONEWEB-0169             
1 48077U 21025AM  26089.41652982 -.00000295  00000+0 -84327-3 0  9992
2 48077  87.9010 335.9026 0001518  83.9474 276.1828 13.13470776241966
