[{"OBJECT_NAME":"ONEWEB-0159","OBJECT_ID":"2021-025W","EPOCH":"2026-03-30T17:28:20.878752","MEAN_MOTION":13.13471963,"ECCENTRICITY":0.0001669,"INCLINATION":87.9019,"RA_OF_ASC_NODE":335.8268,"ARG_OF_PERICENTER":72.5663,"MEAN_ANOMALY":287.5649,"EPHEMERIS_TYPE":0,"CLASSIFICATION_TYPE":"U","NORAD_CAT_ID":48062,"ELEMENT_SET_NO":999,"REV_AT_EPOCH":24330,"BSTAR":0.00013516,"MEAN_MOTION_DOT":6.2e-07,"MEAN_MOTION_DDOT":0.0},{"OBJECT_NAME":"ONEWEB-0164","OBJECT_ID":"2021-025X","EPOCH":"2026-03-30T22:30:36.685440","MEAN_MOTION":13.13468366,"ECCENTRICITY":0.0001771,"INCLINATION":87.9021,"RA_OF_ASC_NODE":335.7918,"ARG_OF_PERICENTER":82.8987,"MEAN_ANOMALY":277.2343,"EPHEMERIS_TYPE":0,"CLASSIFICATION_TYPE":"U","NORAD_CAT_ID":48063,"ELEMENT_SET_NO":999,"REV_AT_EPOCH":24331,"BSTAR":-0.0007877,"MEAN_MOTION_DOT":-2.75e-06,"MEAN_MOTION_DDOT":0.0},{"OBJECT_NAME":"ONEWEB-0167","OBJECT_ID":"2021-025Y","EPOCH":"2026-03-30T23:10:50.172672","MEAN_MOTION":13.1347354,"ECCENTRICITY":0.0002375,"INCLINATION":87.9009,"RA_OF_ASC_NODE":335.8033,"ARG_OF_PERICENTER":74.0409,"MEAN_ANOMALY":286.0982,"EPHEMERIS_TYPE":0,"CLASSIFICATION_TYPE":"U","NORAD_CAT_ID":48064,"ELEMENT_SET_NO":999,"REV_AT_EPOCH":24330,"BSTAR":0.00086039,"MEAN_MOTION_DOT":3.27e-06,"MEAN_MOTION_DDOT":0.0},{"OBJECT_NAME":"ONEWEB-0166","OBJECT_ID":"2021-025Z","EPOCH":"2026-03-30T21:54:03.492288","MEAN_MOTION":13.13468482,"ECCENTRICITY":0.0001553,"INCLINATION":87.9018,"RA_OF_ASC_NODE":335.7784,"ARG_OF_PERICENTER":75.6167,"MEAN_ANOMALY":284.5135,"EPHEMERIS_TYPE":0,"CLASSIFICATION_TYPE":"U","NORAD_CAT_ID":48065,"ELEMENT_SET_NO":999,"REV_AT_EPOCH":24337,"BSTAR":0.00046594999999999997,"MEAN_MOTION_DOT":1.83e-06,"MEAN_MOTION_DDOT":0.0},{"OBJECT_NAME":"ONEWEB-0151","OBJECT_ID":"2021-025AA","EPOCH":"2026-03-30T21:56:29.920416","MEAN_MOTION":13.13471309,"ECCENTRICITY":0.000185,"INCLINATION":87.9013,"RA_OF_ASC_NODE":335.8027,"ARG_OF_PERICENTER":80.1509,"MEAN_ANOMALY":279.9829,"EPHEMERIS_TYPE":0,"CLASSIFICATION_TYPE":"U","NORAD_CAT_ID":48066,"ELEMENT_SET_NO":999,"REV_AT_EPOCH":24331,"BSTAR":0.00043003999999999997,"MEAN_MOTION_DOT":1.7e-06,"MEAN_MOTION_DDOT":0.0},{"OBJECT_NAME":"ONEWEB-0170","OBJECT_ID":"2021-025AB","EPOCH":"2026-03-30T22:08:40.844544","MEAN_MOTION":13.13468368,"ECCENTRICITY":0.0002075,"INCLINATION":87.9012,"RA_OF_ASC_NODE":335.8027,"ARG_OF_PERICENTER":89.8526,"MEAN_ANOMALY":270.2841,"EPHEMERIS_TYPE":0,"CLASSIFICATION_TYPE":"U","NORAD_CAT_ID":48067,"ELEMENT_SET_NO":999,"REV_AT_EPOCH":24327,"BSTAR":-0.00012863,"MEAN_MOTION_DOT":-3.4e-07,"MEAN_MOTION_DDOT":0.0},{"OBJECT_NAME":"ONEWEB-0168","OBJECT_ID":"2021-025AC","EPOCH":"2026-03-30T18:07:21.310464","MEAN_MOTION":13.13468524,"ECCENTRICITY":0.0001734,"INCLINATION":87.9021,"RA_OF_ASC_NODE":335.8288,"ARG_OF_PERICENTER":73.586,"MEAN_ANOMALY":286.546,"EPHEMERIS_TYPE":0,"CLASSIFICATION_TYPE":"U","NORAD_CAT_ID":48068,"ELEMENT_SET_NO":999,"REV_AT_EPOCH":24326,"BSTAR":0.00070026,"MEAN_MOTION_DOT":2.68e-06,"MEAN_MOTION_DDOT":0.0},{"OBJECT_NAME":"ONEWEB-0173","OBJECT_ID":"2021-025AD","EPOCH":"2026-03-30T23:24:14.431392","MEAN_MOTION":13.13471472,"ECCENTRICITY":0.0001947,"INCLINATION":87.9016,"RA_OF_ASC_NODE":335.7911,"ARG_OF_PERICENTER":71.1111,"MEAN_ANOMALY":289.0229,"EPHEMERIS_TYPE":0,"CLASSIFICATION_TYPE":"U","NORAD_CAT_ID":48069,"ELEMENT_SET_NO":999,"REV_AT_EPOCH":24353,"BSTAR":0.00063094,"MEAN_MOTION_DOT":2.43e-06,"MEAN_MOTION_DDOT":0.0},{"OBJECT_NAME":"ONEWEB-0171","OBJECT_ID":"2021-025AE","EPOCH":"2026-03-30T22:28:10.544160","MEAN_MOTION":13.13469673,"ECCENTRICITY":0.0001812,"INCLINATION":87.9009,"RA_OF_ASC_NODE":335.8096,"ARG_OF_PERICENTER":80.8933,"MEAN_ANOMALY":279.2401,"EPHEMERIS_TYPE":0,"CLASSIFICATION_TYPE":"U","NORAD_CAT_ID":48070,"ELEMENT_SET_NO":999,"REV_AT_EPOCH":24334,"BSTAR":-0.0012338,"MEAN_MOTION_DOT":-4.38e-06,"MEAN_MOTION_DDOT":0.0},{"OBJECT_NAME":"ONEWEB-0172","OBJECT_ID":"2021-025AF","EPOCH":"2026-03-30T21:58:55.020576","MEAN_MOTION":13.13472461,"ECCENTRICITY":0.0001858,"INCLINATION":87.901,"RA_OF_ASC_NODE":335.8012,"ARG_OF_PERICENTER":77.3839,"MEAN_ANOMALY":282.7498,"EPHEMERIS_TYPE":0,"CLASSIFICATION_TYPE":"U","NORAD_CAT_ID":48071,"ELEMENT_SET_NO":999,"REV_AT_EPOCH":24423,"BSTAR":0.00032149,"MEAN_MOTION_DOT":1.3e-06,"MEAN_MOTION_DDOT":0.0},{"OBJECT_NAME":"ONEWEB-0174","OBJECT_ID":"2021-025AG","EPOCH":"2026-03-30T23:21:48.633984","MEAN_MOTION":13.13471842,"ECCENTRICITY":0.0001573,"INCLINATION":87.9008,"RA_OF_ASC_NODE":335.7907,"ARG_OF_PERICENTER":75.6427,"MEAN_ANOMALY":284.4877,"EPHEMERIS_TYPE":0,"CLASSIFICATION_TYPE":"U","NORAD_CAT_ID":48072,"ELEMENT_SET_NO":999,"REV_AT_EPOCH":24356,"BSTAR":0.0007882000000000001,"MEAN_MOTION_DOT":3.01e-06,"MEAN_MOTION_DDOT":0.0},{"OBJECT_NAME":"ONEWEB-0175","OBJECT_ID":"2021-025AH","EPOCH":"2026-03-30T22:15:59.404896","MEAN_MOTION":13.13471582,"ECCENTRICITY":0.0002046,"INCLINATION":87.9018,"RA_OF_ASC_NODE":335.7774,"ARG_OF_PERICENTER":82.9612,"MEAN_ANOMALY":277.175,"EPHEMERIS_TYPE":0,"CLASSIFICATION_TYPE":"U","NORAD_CAT_ID":48073,"ELEMENT_SET_NO":999,"REV_AT_EPOCH":24321,"BSTAR":-0.0004908,"MEAN_MOTION_DOT":-1.66e-06,"MEAN_MOTION_DDOT":0.0},{"OBJECT_NAME":"ONEWEB-0177","OBJECT_ID":"2021-025AJ","EPOCH":"2026-03-30T22:33:02.792160","MEAN_MOTION":13.13468889,"ECCENTRICITY":0.000172,"INCLINATION":87.9017,"RA_OF_ASC_NODE":335.7963,"ARG_OF_PERICENTER":73.2184,"MEAN_ANOMALY":286.9134,"EPHEMERIS_TYPE":0,"CLASSIFICATION_TYPE":"U","NORAD_CAT_ID":48074,"ELEMENT_SET_NO":999,"REV_AT_EPOCH":24340,"BSTAR":-0.00079253,"MEAN_MOTION_DOT":-2.77e-06,"MEAN_MOTION_DDOT":0.0},{"OBJECT_NAME":"ONEWEB-0178","OBJECT_ID":"2021-025AK","EPOCH":"2026-03-30T17:30:58.374720","MEAN_MOTION":13.13472724,"ECCENTRICITY":0.0001997,"INCLINATION":87.8998,"RA_OF_ASC_NODE":335.8615,"ARG_OF_PERICENTER":78.0843,"MEAN_ANOMALY":282.051,"EPHEMERIS_TYPE":0,"CLASSIFICATION_TYPE":"U","NORAD_CAT_ID":48075,"ELEMENT_SET_NO":999,"REV_AT_EPOCH":24342,"BSTAR":0.00037138,"MEAN_MOTION_DOT":1.48e-06,"MEAN_MOTION_DDOT":0.0},{"OBJECT_NAME":"ONEWEB-0108","OBJECT_ID":"2021-025AL","EPOCH":"2026-03-30T22:01:22.127808","MEAN_MOTION":13.13468601,"ECCENTRICITY":0.0001517,"INCLINATION":87.9019,"RA_OF_ASC_NODE":335.7889,"ARG_OF_PERICENTER":84.398,"MEAN_ANOMALY":275.7322,"EPHEMERIS_TYPE":0,"CLASSIFICATION_TYPE":"U","NORAD_CAT_ID":48076,"ELEMENT_SET_NO":999,"REV_AT_EPOCH":24337,"BSTAR":7.5443e-05,"MEAN_MOTION_DOT":4e-07,"MEAN_MOTION_DDOT":0.0},{"OBJECT_NAME":"ONEWEB-0169","OBJECT_ID":"2021-025AM","EPOCH":"2026-03-30T09:59:48.176448","MEAN_MOTION":13.13470776,"ECCENTRICITY":0.0001518,"INCLINATION":87.901,"RA_OF_ASC_NODE":335.9026,"ARG_OF_PERICENTER":83.9474,"MEAN_ANOMALY":276.1828,"EPHEMERIS_TYPE":0,"CLASSIFICATION_TYPE":"U","NORAD_CAT_ID":48077,"ELEMENT_SET_NO":999,"REV_AT_EPOCH":24196,"BSTAR":-0.00084327,"MEAN_MOTION_DOT":-2.95e-06,"MEAN_MOTION_DDOT":0.0}]